STARLINK-36560          
1 67585U 26016AA  26053.91668981  .00031121  00000+0  20914-3 0  9996
2 67585  97.2846 113.7618 0001452  80.2201 270.1924 15.75147600  5614
NAVSTAR 85 (USA 581)    
1 67588U 26017A   26052.52802993  .00000012  00000+0  00000+0 0  9994
2 67588  55.0109  93.3959 0001074  35.0050 325.0753  2.00561062429292
STARLINK-36641          
1 67589U 26018A   26053.69157276  .00218168  00000+0  14234-2 0  9992
2 67589  97.2826 118.7103 0003778  67.6238 292.5427 15.75235762  4940
STARLINK-36376          
1 67590U 26018B   26053.92767880  .00267111  00000+0  17281-2 0  9995
2 67590  97.2852 119.0039 0002772  62.6644 297.4903 15.75297972  4980
STARLINK-36391          
1 67591U 26018C   26053.90845642  .00228753  00000+0  11573-2 0  9994
2 67591  97.2849 119.0289 0002352  50.4220 309.7256 15.80940485  4981
STARLINK-36603          
1 67592U 26018D   26053.92343831  .00157873  00000+0  10369-2 0  9996
2 67592  97.2849 119.0088 0001611  82.3217 277.8231 15.75256071  4989
STARLINK-36634          
1 67593U 26018E   26053.91668981 -.00090731  00000+0 -61318-3 0  9994
2 67593  97.2855 119.0220 0001541  87.3488 278.5095 15.75216496  4974
STARLINK-36638          
1 67594U 26018F   26053.71554785  .00361359  00000+0  18073-2 0  9993
2 67594  97.2840 118.8318 0001421  91.8914 268.2517 15.80851796  4952
STARLINK-36628          
1 67595U 26018G   26053.67921835  .00300630  00000+0  19332-2 0  9997
2 67595  97.2848 118.7274 0001925  59.5515 300.5940 15.75345748  4946
STARLINK-36629          
1 67596U 26018H   26053.68697303  .00157211  00000+0  10326-2 0  9998
2 67596  97.2843 118.7172 0001362  95.9423 264.1998 15.75256865  4945
STARLINK-36384          
1 67597U 26018J   26053.96598884 -.00467438  00000+0 -26904-2 0  9990
2 67597  97.2840 119.1030 0001323  36.7824 323.3535 15.79834612  4992
STARLINK-36358          
1 67598U 26018K   26053.68097808  .00135620  00000+0  89365-3 0  9994
2 67598  97.2847 118.7251 0001770  99.6425 260.5040 15.75244086  4945
