CCSDS_OMM_VERS = 2.0
CREATION_DATE  = 
ORIGINATOR     = 

OBJECT_NAME    = STARLINK-36560
OBJECT_ID      = 2026-016AA
CENTER_NAME    = EARTH
REF_FRAME      = TEME
TIME_SYSTEM    = UTC
MEAN_ELEMENT_THEORY = SGP/SGP4

EPOCH          = 2026-02-22T22:00:01.999584
MEAN_MOTION    = 15.75147600
ECCENTRICITY   = .00014527
INCLINATION    = 97.2846
RA_OF_ASC_NODE = 113.7618
ARG_OF_PERICENTER = 80.2201
MEAN_ANOMALY   = 270.1924

EPHEMERIS_TYPE = 0
CLASSIFICATION_TYPE = U
NORAD_CAT_ID   = 67585
ELEMENT_SET_NO = 999
REV_AT_EPOCH   = 561
BSTAR          = .2091384E-3
MEAN_MOTION_DOT = .31121E-3
MEAN_MOTION_DDOT = 0

CCSDS_OMM_VERS = 2.0
CREATION_DATE  = 
ORIGINATOR     = 

OBJECT_NAME    = NAVSTAR 85 (USA 581)
OBJECT_ID      = 2026-017A
CENTER_NAME    = EARTH
REF_FRAME      = TEME
TIME_SYSTEM    = UTC
MEAN_ELEMENT_THEORY = SGP/SGP4

EPOCH          = 2026-02-21T12:40:21.785952
MEAN_MOTION    = 2.00561062
ECCENTRICITY   = .0001074
INCLINATION    = 55.0109
RA_OF_ASC_NODE = 93.3959
ARG_OF_PERICENTER = 35.0050
MEAN_ANOMALY   = 325.0753

EPHEMERIS_TYPE = 0
CLASSIFICATION_TYPE = U
NORAD_CAT_ID   = 67588
ELEMENT_SET_NO = 999
REV_AT_EPOCH   = 42929
BSTAR          = 0
MEAN_MOTION_DOT = .12E-6
MEAN_MOTION_DDOT = 0

CCSDS_OMM_VERS = 2.0
CREATION_DATE  = 
ORIGINATOR     = 

OBJECT_NAME    = STARLINK-36641
OBJECT_ID      = 2026-018A
CENTER_NAME    = EARTH
REF_FRAME      = TEME
TIME_SYSTEM    = UTC
MEAN_ELEMENT_THEORY = SGP/SGP4

EPOCH          = 2026-02-22T16:35:51.886464
MEAN_MOTION    = 15.75235762
ECCENTRICITY   = .00037789
INCLINATION    = 97.2826
RA_OF_ASC_NODE = 118.7103
ARG_OF_PERICENTER = 67.6238
MEAN_ANOMALY   = 292.5427

EPHEMERIS_TYPE = 0
CLASSIFICATION_TYPE = U
NORAD_CAT_ID   = 67589
ELEMENT_SET_NO = 999
REV_AT_EPOCH   = 494
BSTAR          = .14233886E-2
MEAN_MOTION_DOT = .218168E-2
MEAN_MOTION_DDOT = 0

CCSDS_OMM_VERS = 2.0
CREATION_DATE  = 
ORIGINATOR     = 

OBJECT_NAME    = STARLINK-36376
OBJECT_ID      = 2026-018B
CENTER_NAME    = EARTH
REF_FRAME      = TEME
TIME_SYSTEM    = UTC
MEAN_ELEMENT_THEORY = SGP/SGP4

EPOCH          = 2026-02-22T22:15:51.448320
MEAN_MOTION    = 15.75297972
ECCENTRICITY   = .0002772
INCLINATION    = 97.2852
RA_OF_ASC_NODE = 119.0039
ARG_OF_PERICENTER = 62.6644
MEAN_ANOMALY   = 297.4903

EPHEMERIS_TYPE = 0
CLASSIFICATION_TYPE = U
NORAD_CAT_ID   = 67590
ELEMENT_SET_NO = 999
REV_AT_EPOCH   = 498
BSTAR          = .17280859E-2
MEAN_MOTION_DOT = .267111E-2
MEAN_MOTION_DDOT = 0

CCSDS_OMM_VERS = 2.0
CREATION_DATE  = 
ORIGINATOR     = 

OBJECT_NAME    = STARLINK-36391
OBJECT_ID      = 2026-018C
CENTER_NAME    = EARTH
REF_FRAME      = TEME
TIME_SYSTEM    = UTC
MEAN_ELEMENT_THEORY = SGP/SGP4

EPOCH          = 2026-02-22T21:48:10.634688
MEAN_MOTION    = 15.80940485
ECCENTRICITY   = .0002352
INCLINATION    = 97.2849
RA_OF_ASC_NODE = 119.0289
ARG_OF_PERICENTER = 50.4220
MEAN_ANOMALY   = 309.7256

EPHEMERIS_TYPE = 0
CLASSIFICATION_TYPE = U
NORAD_CAT_ID   = 67591
ELEMENT_SET_NO = 999
REV_AT_EPOCH   = 498
BSTAR          = .11572995E-2
MEAN_MOTION_DOT = .228753E-2
MEAN_MOTION_DDOT = 0

CCSDS_OMM_VERS = 2.0
CREATION_DATE  = 
ORIGINATOR     = 

OBJECT_NAME    = STARLINK-36603
OBJECT_ID      = 2026-018D
CENTER_NAME    = EARTH
REF_FRAME      = TEME
TIME_SYSTEM    = UTC
MEAN_ELEMENT_THEORY = SGP/SGP4

EPOCH          = 2026-02-22T22:09:45.069984
MEAN_MOTION    = 15.75256071
ECCENTRICITY   = .00016116
INCLINATION    = 97.2849
RA_OF_ASC_NODE = 119.0088
ARG_OF_PERICENTER = 82.3217
MEAN_ANOMALY   = 277.8231

EPHEMERIS_TYPE = 0
CLASSIFICATION_TYPE = U
NORAD_CAT_ID   = 67592
ELEMENT_SET_NO = 999
REV_AT_EPOCH   = 498
BSTAR          = .10368945E-2
MEAN_MOTION_DOT = .157873E-2
MEAN_MOTION_DDOT = 0

CCSDS_OMM_VERS = 2.0
CREATION_DATE  = 
ORIGINATOR     = 

OBJECT_NAME    = STARLINK-36634
OBJECT_ID      = 2026-018E
CENTER_NAME    = EARTH
REF_FRAME      = TEME
TIME_SYSTEM    = UTC
MEAN_ELEMENT_THEORY = SGP/SGP4

EPOCH          = 2026-02-22T22:00:01.999584
MEAN_MOTION    = 15.75216496
ECCENTRICITY   = .00015419
INCLINATION    = 97.2855
RA_OF_ASC_NODE = 119.0220
ARG_OF_PERICENTER = 87.3488
MEAN_ANOMALY   = 278.5095

EPHEMERIS_TYPE = 0
CLASSIFICATION_TYPE = U
NORAD_CAT_ID   = 67593
ELEMENT_SET_NO = 999
REV_AT_EPOCH   = 497
BSTAR          = -.61317976E-3
MEAN_MOTION_DOT = -.90731E-3
MEAN_MOTION_DDOT = 0

CCSDS_OMM_VERS = 2.0
CREATION_DATE  = 
ORIGINATOR     = 

OBJECT_NAME    = STARLINK-36638
OBJECT_ID      = 2026-018F
CENTER_NAME    = EARTH
REF_FRAME      = TEME
TIME_SYSTEM    = UTC
MEAN_ELEMENT_THEORY = SGP/SGP4

EPOCH          = 2026-02-22T17:10:23.334240
MEAN_MOTION    = 15.80851796
ECCENTRICITY   = .00014213
INCLINATION    = 97.2840
RA_OF_ASC_NODE = 118.8318
ARG_OF_PERICENTER = 91.8914
MEAN_ANOMALY   = 268.2517

EPHEMERIS_TYPE = 0
CLASSIFICATION_TYPE = U
NORAD_CAT_ID   = 67594
ELEMENT_SET_NO = 999
REV_AT_EPOCH   = 495
BSTAR          = .18072591E-2
MEAN_MOTION_DOT = .361359E-2
MEAN_MOTION_DDOT = 0

CCSDS_OMM_VERS = 2.0
CREATION_DATE  = 
ORIGINATOR     = 

OBJECT_NAME    = STARLINK-36628
OBJECT_ID      = 2026-018G
CENTER_NAME    = EARTH
REF_FRAME      = TEME
TIME_SYSTEM    = UTC
MEAN_ELEMENT_THEORY = SGP/SGP4

EPOCH          = 2026-02-22T16:18:04.465440
MEAN_MOTION    = 15.75345748
ECCENTRICITY   = .00019253
INCLINATION    = 97.2848
RA_OF_ASC_NODE = 118.7274
ARG_OF_PERICENTER = 59.5515
MEAN_ANOMALY   = 300.5940

EPHEMERIS_TYPE = 0
CLASSIFICATION_TYPE = U
NORAD_CAT_ID   = 67595
ELEMENT_SET_NO = 999
REV_AT_EPOCH   = 494
BSTAR          = .1933241E-2
MEAN_MOTION_DOT = .30063E-2
MEAN_MOTION_DDOT = 0

CCSDS_OMM_VERS = 2.0
CREATION_DATE  = 
ORIGINATOR     = 

OBJECT_NAME    = STARLINK-36629
OBJECT_ID      = 2026-018H
CENTER_NAME    = EARTH
REF_FRAME      = TEME
TIME_SYSTEM    = UTC
MEAN_ELEMENT_THEORY = SGP/SGP4

EPOCH          = 2026-02-22T16:29:14.469792
MEAN_MOTION    = 15.75256865
ECCENTRICITY   = .00013621
INCLINATION    = 97.2843
RA_OF_ASC_NODE = 118.7172
ARG_OF_PERICENTER = 95.9423
MEAN_ANOMALY   = 264.1998

EPHEMERIS_TYPE = 0
CLASSIFICATION_TYPE = U
NORAD_CAT_ID   = 67596
ELEMENT_SET_NO = 999
REV_AT_EPOCH   = 494
BSTAR          = .10326075E-2
MEAN_MOTION_DOT = .157211E-2
MEAN_MOTION_DDOT = 0

CCSDS_OMM_VERS = 2.0
CREATION_DATE  = 
ORIGINATOR     = 

OBJECT_NAME    = STARLINK-36384
OBJECT_ID      = 2026-018J
CENTER_NAME    = EARTH
REF_FRAME      = TEME
TIME_SYSTEM    = UTC
MEAN_ELEMENT_THEORY = SGP/SGP4

EPOCH          = 2026-02-22T23:11:01.435776
MEAN_MOTION    = 15.79834612
ECCENTRICITY   = .00013237
INCLINATION    = 97.2840
RA_OF_ASC_NODE = 119.1030
ARG_OF_PERICENTER = 36.7824
MEAN_ANOMALY   = 323.3535

EPHEMERIS_TYPE = 0
CLASSIFICATION_TYPE = U
NORAD_CAT_ID   = 67597
ELEMENT_SET_NO = 999
REV_AT_EPOCH   = 499
BSTAR          = -.2690435E-2
MEAN_MOTION_DOT = -.467438E-2
MEAN_MOTION_DDOT = 0

CCSDS_OMM_VERS = 2.0
CREATION_DATE  = 
ORIGINATOR     = 

OBJECT_NAME    = STARLINK-36358
OBJECT_ID      = 2026-018K
CENTER_NAME    = EARTH
REF_FRAME      = TEME
TIME_SYSTEM    = UTC
MEAN_ELEMENT_THEORY = SGP/SGP4

EPOCH          = 2026-02-22T16:20:36.506112
MEAN_MOTION    = 15.75244086
ECCENTRICITY   = .00017704
INCLINATION    = 97.2847
RA_OF_ASC_NODE = 118.7251
ARG_OF_PERICENTER = 99.6425
MEAN_ANOMALY   = 260.5040

EPHEMERIS_TYPE = 0
CLASSIFICATION_TYPE = U
NORAD_CAT_ID   = 67598
ELEMENT_SET_NO = 999
REV_AT_EPOCH   = 494
BSTAR          = .89364583E-3
MEAN_MOTION_DOT = .13562E-2
MEAN_MOTION_DDOT = 0

